start=new Date('2023-05-07T00:00:00.000Z').valueOf();
sats=[{"COUNTRY_CODE":"US","GP_ID":"231348790","ELEMENT_SET_NO":"999","ECCENTRICITY":"0.00009460","NORAD_CAT_ID":"45082","INCLINATION":"53.0541","MEAN_MOTION_DOT":"0.00032367","MEAN_MOTION_DDOT":"0.0000000000000","FILE":"3902298","TLE_LINE1":"1 45082U 20006AQ  23126.55184694  .00032367  00000-0  21828-2 0  9997","TIME_SYSTEM":"UTC","REF_FRAME":"TEME","REV_AT_EPOCH":"18026","TLE_LINE2":"2 45082  53.0541 246.9874 0000946  66.1109 293.9979 15.06383721180262","CENTER_NAME":"EARTH","PERIAPSIS":"546.608","ARG_OF_PERICENTER":"66.1109","RCS_SIZE":"LARGE","RA_OF_ASC_NODE":"246.9874","APOAPSIS":"547.919","DECAY_DATE":null,"BSTAR":"0.00218280000000","SEMIMAJOR_AXIS":"6925.398","LAUNCH_DATE":"2020-01-29","OBJECT_ID":"2020-006AQ","MEAN_ANOMALY":"293.9979","OBJECT_NAME":"STARLINK-1160","MEAN_ELEMENT_THEORY":"SGP4","MEAN_MOTION":"15.06383721","EPOCH":"2023-05-06T13:14:39.575616","EPHEMERIS_TYPE":"0","OBJECT_TYPE":"PAYLOAD","CLASSIFICATION_TYPE":"U","SITE":"AFETR","PERIOD":"95.593"},{"PERIAPSIS":"546.710","ARG_OF_PERICENTER":"108.3171","CENTER_NAME":"EARTH","TLE_LINE2":"2 45083  53.0541 266.5559 0000753 108.3171 251.7900 15.06394053180003","TIME_SYSTEM":"UTC","TLE_LINE1":"1 45083U 20006AR  23126.65046242  .00032759  00000-0  22083-2 0  9994","REV_AT_EPOCH":"18000","REF_FRAME":"TEME","MEAN_MOTION_DDOT":"0.0000000000000","FILE":"3902298","INCLINATION":"53.0541","NORAD_CAT_ID":"45083","ECCENTRICITY":"0.00007530","MEAN_MOTION_DOT":"0.00032759","ELEMENT_SET_NO":"999","COUNTRY_CODE":"US","GP_ID":"231348047","SITE":"AFETR","PERIOD":"95.593","OBJECT_TYPE":"PAYLOAD","EPHEMERIS_TYPE":"0","CLASSIFICATION_TYPE":"U","EPOCH":"2023-05-06T15:36:39.953088","MEAN_ELEMENT_THEORY":"SGP4","OBJECT_NAME":"STARLINK-1190","MEAN_MOTION":"15.06394053","OBJECT_ID":"2020-006AR","MEAN_ANOMALY":"251.7900","BSTAR":"0.00220830000000","LAUNCH_DATE":"2020-01-29","SEMIMAJOR_AXIS":"6925.367","APOAPSIS":"547.753","RCS_SIZE":"LARGE","RA_OF_ASC_NODE":"266.5559","DECAY_DATE":null},{"ELEMENT_SET_NO":"999","GP_ID":"231348297","COUNTRY_CODE":"US","MEAN_MOTION_DOT":"0.00030866","ECCENTRICITY":"0.00012210","NORAD_CAT_ID":"45084","INCLINATION":"53.0540","REF_FRAME":"TEME","REV_AT_EPOCH":"18054","TLE_LINE1":"1 45084U 20006AS  23126.49934268  .00030866  00000-0  20822-2 0  9997","TIME_SYSTEM":"UTC","FILE":"3902298","MEAN_MOTION_DDOT":"0.0000000000000","PERIAPSIS":"546.380","ARG_OF_PERICENTER":"67.8260","CENTER_NAME":"EARTH","TLE_LINE2":"2 45084  53.0540 227.2331 0001221  67.8260 292.2859 15.06396067180543","DECAY_DATE":null,"RCS_SIZE":"LARGE","RA_OF_ASC_NODE":"227.2331","APOAPSIS":"548.071","MEAN_ANOMALY":"292.2859","OBJECT_ID":"2020-006AS","SEMIMAJOR_AXIS":"6925.361","LAUNCH_DATE":"2020-01-29","BSTAR":"0.00208220000000","CLASSIFICATION_TYPE":"U","EPHEMERIS_TYPE":"0","OBJECT_TYPE":"PAYLOAD","MEAN_ELEMENT_THEORY":"SGP4","OBJECT_NAME":"STARLINK-1173","MEAN_MOTION":"15.06396067","EPOCH":"2023-05-06T11:59:03.207552","PERIOD":"95.592","SITE":"AFETR"},{"SEMIMAJOR_AXIS":"6925.361","LAUNCH_DATE":"2020-01-29","BSTAR":"0.00186200000000","MEAN_ANOMALY":"247.1744","OBJECT_ID":"2020-006AT","DECAY_DATE":null,"RA_OF_ASC_NODE":"226.9514","RCS_SIZE":"LARGE","APOAPSIS":"547.816","PERIOD":"95.592","SITE":"AFETR","MEAN_ELEMENT_THEORY":"SGP4","MEAN_MOTION":"15.06396010","OBJECT_NAME":"STARLINK-1179","EPOCH":"2023-05-06T13:29:16.679040","CLASSIFICATION_TYPE":"U","EPHEMERIS_TYPE":"0","OBJECT_TYPE":"PAYLOAD","MEAN_MOTION_DOT":"0.00027559","ECCENTRICITY":"0.00008520","NORAD_CAT_ID":"45085","INCLINATION":"53.0533","GP_ID":"231349048","COUNTRY_CODE":"US","ELEMENT_SET_NO":"999","TLE_LINE2":"2 45085  53.0533 226.9514 0000852 112.9335 247.1744 15.06396010180550","CENTER_NAME":"EARTH","PERIAPSIS":"546.636","ARG_OF_PERICENTER":"112.9335","FILE":"3902298","MEAN_MOTION_DDOT":"0.0000000000000","REF_FRAME":"TEME","REV_AT_EPOCH":"18055","TLE_LINE1":"1 45085U 20006AT  23126.56199860  .00027559  00000-0  18620-2 0  9995","TIME_SYSTEM":"UTC"},{"DECAY_DATE":null,"APOAPSIS":"356.930","RCS_SIZE":"LARGE","RA_OF_ASC_NODE":"162.4229","SEMIMAJOR_AXIS":"6723.648","LAUNCH_DATE":"2020-01-29","BSTAR":"0.00529480000000","MEAN_ANOMALY":"337.5214","OBJECT_ID":"2020-006AU","EPOCH":"2023-05-06T12:58:22.075392","OBJECT_NAME":"STARLINK-1181","MEAN_ELEMENT_THEORY":"SGP4","MEAN_MOTION":"15.74691041","CLASSIFICATION_TYPE":"U","OBJECT_TYPE":"PAYLOAD","EPHEMERIS_TYPE":"0","PERIOD":"91.447","SITE":"AFETR","GP_ID":"231349290","COUNTRY_CODE":"US","ELEMENT_SET_NO":"999","MEAN_MOTION_DOT":"0.00884760","INCLINATION":"52.9588","NORAD_CAT_ID":"45086","ECCENTRICITY":"0.00169810","FILE":"3902298","MEAN_MOTION_DDOT":"0.0000000000000","REV_AT_EPOCH":"18131","REF_FRAME":"TEME","TIME_SYSTEM":"UTC","TLE_LINE1":"1 45086U 20006AU  23126.54053328  .00884760  00000-0  52948-2 0  9998","TLE_LINE2":"2 45086  52.9588 162.4229 0016981  22.6549 337.5214 15.74691041181318","CENTER_NAME":"EARTH","PERIAPSIS":"334.095","ARG_OF_PERICENTER":"22.6549"},{"CLASSIFICATION_TYPE":"U","EPHEMERIS_TYPE":"0","OBJECT_TYPE":"PAYLOAD","OBJECT_NAME":"STARLINK-1185","MEAN_MOTION":"15.06385635","MEAN_ELEMENT_THEORY":"SGP4","EPOCH":"2023-05-06T13:08:02.792256","PERIOD":"95.593","SITE":"AFETR","DECAY_DATE":null,"RA_OF_ASC_NODE":"227.0138","RCS_SIZE":"LARGE","APOAPSIS":"548.114","MEAN_ANOMALY":"239.0434","OBJECT_ID":"2020-006AV","SEMIMAJOR_AXIS":"6925.393","LAUNCH_DATE":"2020-01-29","BSTAR":"0.00111860000000","REF_FRAME":"TEME","REV_AT_EPOCH":"18055","TLE_LINE1":"1 45087U 20006AV  23126.54725454  .00016413  00000-0  11186-2 0  9996","TIME_SYSTEM":"UTC","FILE":"3902298","MEAN_MOTION_DDOT":"0.0000000000000","ARG_OF_PERICENTER":"121.0676","PERIAPSIS":"546.401","TLE_LINE2":"2 45087  53.0547 227.0138 0001237 121.0676 239.0434 15.06385635180555","CENTER_NAME":"EARTH","ELEMENT_SET_NO":"999","GP_ID":"231347547","COUNTRY_CODE":"US","MEAN_MOTION_DOT":"0.00016413","ECCENTRICITY":"0.00012370","NORAD_CAT_ID":"45087","INCLINATION":"53.0547"},{"EPOCH":"2023-05-06T12:04:20.703360","OBJECT_NAME":"STARLINK-1183","MEAN_MOTION":"15.06395795","MEAN_ELEMENT_THEORY":"SGP4","CLASSIFICATION_TYPE":"U","OBJECT_TYPE":"PAYLOAD","EPHEMERIS_TYPE":"0","SITE":"AFETR","PERIOD":"95.592","DECAY_DATE":null,"APOAPSIS":"548.150","RCS_SIZE":"LARGE","RA_OF_ASC_NODE":"227.2202","SEMIMAJOR_AXIS":"6925.361","LAUNCH_DATE":"2020-01-29","BSTAR":"0.00187520000000","MEAN_ANOMALY":"224.8603","OBJECT_ID":"2020-006AW","FILE":"3902298","MEAN_MOTION_DDOT":"0.0000000000000","REV_AT_EPOCH":"18054","REF_FRAME":"TEME","TIME_SYSTEM":"UTC","TLE_LINE1":"1 45088U 20006AW  23126.50301740  .00027757  00000-0  18752-2 0  9990","TLE_LINE2":"2 45088  53.0542 227.2202 0001333 135.2493 224.8603 15.06395795180543","CENTER_NAME":"EARTH","PERIAPSIS":"546.303","ARG_OF_PERICENTER":"135.2493","GP_ID":"231347797","COUNTRY_CODE":"US","ELEMENT_SET_NO":"999","MEAN_MOTION_DOT":"0.00027757","INCLINATION":"53.0542","ECCENTRICITY":"0.00013330","NORAD_CAT_ID":"45088"},{"SITE":"AFETR","PERIOD":"95.592","EPOCH":"2023-05-06T15:26:03.902208","MEAN_MOTION":"15.06400234","OBJECT_NAME":"STARLINK-1136","MEAN_ELEMENT_THEORY":"SGP4","OBJECT_TYPE":"PAYLOAD","EPHEMERIS_TYPE":"0","CLASSIFICATION_TYPE":"U","BSTAR":"0.00050749000000","SEMIMAJOR_AXIS":"6925.348","LAUNCH_DATE":"2020-01-29","OBJECT_ID":"2020-006AX","MEAN_ANOMALY":"271.2949","APOAPSIS":"548.115","RA_OF_ASC_NODE":"226.6723","RCS_SIZE":"LARGE","DECAY_DATE":null,"CENTER_NAME":"EARTH","TLE_LINE2":"2 45089  53.0541 226.6723 0001302  88.8189 271.2949 15.06400234180572","PERIAPSIS":"546.311","ARG_OF_PERICENTER":"88.8189","MEAN_MOTION_DDOT":"0.0000000000000","FILE":"3902298","TIME_SYSTEM":"UTC","TLE_LINE1":"1 45089U 20006AX  23126.64310072  .00007286  00000-0  50749-3 0  9992","REV_AT_EPOCH":"18057","REF_FRAME":"TEME","INCLINATION":"53.0541","NORAD_CAT_ID":"45089","ECCENTRICITY":"0.00013020","MEAN_MOTION_DOT":"0.00007286","COUNTRY_CODE":"US","GP_ID":"231348549","ELEMENT_SET_NO":"999"},{"PERIOD":"95.593","SITE":"AFETR","OBJECT_TYPE":"PAYLOAD","EPHEMERIS_TYPE":"0","CLASSIFICATION_TYPE":"U","EPOCH":"2023-05-06T13:17:18.348576","OBJECT_NAME":"STARLINK-1176","MEAN_MOTION":"15.06383509","MEAN_ELEMENT_THEORY":"SGP4","OBJECT_ID":"2020-006AY","MEAN_ANOMALY":"290.0520","BSTAR":"0.00240120000000","SEMIMAJOR_AXIS":"6925.399","LAUNCH_DATE":"2020-01-29","APOAPSIS":"547.991","RA_OF_ASC_NODE":"226.9798","RCS_SIZE":"LARGE","DECAY_DATE":null,"PERIAPSIS":"546.538","ARG_OF_PERICENTER":"70.0581","CENTER_NAME":"EARTH","TLE_LINE2":"2 45090  53.0534 226.9798 0001049  70.0581 290.0520 15.06383509180555","TIME_SYSTEM":"UTC","TLE_LINE1":"1 45090U 20006AY  23126.55368459  .00035650  00000-0  24012-2 0  9995","REV_AT_EPOCH":"18055","REF_FRAME":"TEME","MEAN_MOTION_DDOT":"0.0000000000000","FILE":"3902298","INCLINATION":"53.0534","ECCENTRICITY":"0.00010490","NORAD_CAT_ID":"45090","MEAN_MOTION_DOT":"0.00035650","ELEMENT_SET_NO":"999","COUNTRY_CODE":"US","GP_ID":"231348791"},{"BSTAR":"0.00232640000000","LAUNCH_DATE":"2020-01-29","SEMIMAJOR_AXIS":"6925.414","OBJECT_ID":"2020-006BA","MEAN_ANOMALY":"293.8850","APOAPSIS":"547.917","RA_OF_ASC_NODE":"226.8033","RCS_SIZE":"LARGE","DECAY_DATE":null,"SITE":"AFETR","PERIOD":"95.593","EPOCH":"2023-05-06T14:17:04.077312","MEAN_MOTION":"15.06378645","MEAN_ELEMENT_THEORY":"SGP4","OBJECT_NAME":"STARLINK-1137","OBJECT_TYPE":"PAYLOAD","EPHEMERIS_TYPE":"0","CLASSIFICATION_TYPE":"U","INCLINATION":"53.0530","ECCENTRICITY":"0.00009210","NORAD_CAT_ID":"45092","MEAN_MOTION_DOT":"0.00034520","COUNTRY_CODE":"US","GP_ID":"231348048","ELEMENT_SET_NO":"999","CENTER_NAME":"EARTH","TLE_LINE2":"2 45092  53.0530 226.8033 0000921  66.2235 293.8850 15.06378645180557","ARG_OF_PERICENTER":"66.2235","PERIAPSIS":"546.641","MEAN_MOTION_DDOT":"0.0000000000000","FILE":"3902298","TIME_SYSTEM":"UTC","TLE_LINE1":"1 45092U 20006BA  23126.59518608  .00034520  00000-0  23264-2 0  9997","REV_AT_EPOCH":"18055","REF_FRAME":"TEME"}];
